1 26871U 01031A   12043.27248341 -.00000292  00000-0  10000-3 0  4522
2 26871 001.9756 074.3941 0002314 298.5666 166.9165 01.00280873 38738